[{"OBJECT_NAME":"COSMOS 2566","OBJECT_ID":"2022-163C","EPOCH":"2026-03-09T21:48:06.708672","MEAN_MOTION":13.97695206,"ECCENTRICITY":0.0007804,"INCLINATION":67.1457,"RA_OF_ASC_NODE":343.8663,"ARG_OF_PERICENTER":202.0486,"MEAN_ANOMALY":158.0264,"EPHEMERIS_TYPE":0,"CLASSIFICATION_TYPE":"U","NORAD_CAT_ID":54383,"ELEMENT_SET_NO":999,"REV_AT_EPOCH":16669,"BSTAR":7.7007e-5,"MEAN_MOTION_DOT":3.3e-7,"MEAN_MOTION_DDOT":0},{"OBJECT_NAME":"COSMOS 807","OBJECT_ID":"1976-022A","EPOCH":"2026-03-09T22:26:32.449920","MEAN_MOTION":14.61425434,"ECCENTRICITY":0.04604657,"INCLINATION":82.9148,"RA_OF_ASC_NODE":45.0203,"ARG_OF_PERICENTER":213.1542,"MEAN_ANOMALY":175.2323,"EPHEMERIS_TYPE":0,"CLASSIFICATION_TYPE":"U","NORAD_CAT_ID":8744,"ELEMENT_SET_NO":999,"REV_AT_EPOCH":53512,"BSTAR":0.00024537229,"MEAN_MOTION_DOT":5.984e-5,"MEAN_MOTION_DDOT":0}]
